{
  "type": "FeatureCollection",
  "features": [
    {
      "type": "Feature",
      "properties": {
        "norad_id": 66969,
        "name": "STARLINK-36149",
        "group": "last-30-days",
        "lat": -25.381461502950533,
        "lon": 96.3778080101399,
        "alt_km": 320.1963234558616,
        "timestamp": "2025-12-19T06:59:42.652618+00:00",
        "meta_object_name": "STARLINK-36149",
        "meta_object_id": "2025-288L",
        "meta_epoch": "2025-12-18T22:00:00.999936",
        "meta_mean_motion": 15.85223929,
        "meta_eccentricity": 0.00017971,
        "meta_inclination": 43.001,
        "meta_ra_of_asc_node": 129.2905,
        "meta_arg_of_pericenter": 281.5938,
        "meta_mean_anomaly": 58.8048,
        "meta_ephemeris_type": 0,
        "meta_classification_type": "U",
        "meta_norad_cat_id": 66969,
        "meta_element_set_no": 999,
        "meta_rev_at_epoch": 282,
        "meta_bstar": -0.0063862759,
        "meta_mean_motion_dot": -0.01371086,
        "meta_mean_motion_ddot": 0,
        "tle_line1": "1 66969U 25288L   25352.91667824 -.01371086  00000+0 -63863-2 0  9996",
        "tle_line2": "2 66969  43.0010 129.2905 0001797 281.5938  58.8048 15.85223929  2825"
      },
      "geometry": {
        "type": "Point",
        "coordinates": [
          96.3778080101399,
          -25.381461502950533
        ]
      }
    },
    {
      "type": "Feature",
      "properties": {
        "norad_id": 66970,
        "name": "STARLINK-35703",
        "group": "last-30-days",
        "lat": -19.685075124810695,
        "lon": 104.38353230289651,
        "alt_km": 320.03921604085554,
        "timestamp": "2025-12-19T06:59:42.652628+00:00",
        "meta_object_name": "STARLINK-35703",
        "meta_object_id": "2025-288M",
        "meta_epoch": "2025-12-18T22:00:00.999936",
        "meta_mean_motion": 15.85236559,
        "meta_eccentricity": 0.00017059,
        "meta_inclination": 43.0012,
        "meta_ra_of_asc_node": 129.2667,
        "meta_arg_of_pericenter": 279.3865,
        "meta_mean_anomaly": 70.3728,
        "meta_ephemeris_type": 0,
        "meta_classification_type": "U",
        "meta_norad_cat_id": 66970,
        "meta_element_set_no": 999,
        "meta_rev_at_epoch": 282,
        "meta_bstar": -0.0065978723,
        "meta_mean_motion_dot": -0.01411204,
        "meta_mean_motion_ddot": 0,
        "tle_line1": "1 66970U 25288M   25352.91667824 -.01411204  00000+0 -65979-2 0  9995",
        "tle_line2": "2 66970  43.0012 129.2667 0001705 279.3865  70.3728 15.85236559  2824"
      },
      "geometry": {
        "type": "Point",
        "coordinates": [
          104.38353230289651,
          -19.685075124810695
        ]
      }
    },
    {
      "type": "Feature",
      "properties": {
        "norad_id": 66971,
        "name": "STARLINK-35678",
        "group": "last-30-days",
        "lat": -30.905046800079816,
        "lon": 87.04076308821256,
        "alt_km": 320.35268288729185,
        "timestamp": "2025-12-19T06:59:42.652640+00:00",
        "meta_object_name": "STARLINK-35678",
        "meta_object_id": "2025-288N",
        "meta_epoch": "2025-12-18T22:00:00.999936",
        "meta_mean_motion": 15.85243611,
        "meta_eccentricity": 0.000178,
        "meta_inclination": 43.0015,
        "meta_ra_of_asc_node": 129.3162,
        "meta_arg_of_pericenter": 278.7666,
        "meta_mean_anomaly": 51.6501,
        "meta_ephemeris_type": 0,
        "meta_classification_type": "U",
        "meta_norad_cat_id": 66971,
        "meta_element_set_no": 999,
        "meta_rev_at_epoch": 282,
        "meta_bstar": -0.0062055008,
        "meta_mean_motion_dot": -0.01338212,
        "meta_mean_motion_ddot": 0,
        "tle_line1": "1 66971U 25288N   25352.91667824 -.01338212  00000+0 -62055-2 0  9995",
        "tle_line2": "2 66971  43.0015 129.3162 0001780 278.7666  51.6501 15.85243611  2822"
      },
      "geometry": {
        "type": "Point",
        "coordinates": [
          87.04076308821256,
          -30.905046800079816
        ]
      }
    },
    {
      "type": "Feature",
      "properties": {
        "norad_id": 66972,
        "name": "STARLINK-34846",
        "group": "last-30-days",
        "lat": -29.502709221267807,
        "lon": 89.61489194525278,
        "alt_km": 320.38461386474046,
        "timestamp": "2025-12-19T06:59:42.652650+00:00",
        "meta_object_name": "STARLINK-34846",
        "meta_object_id": "2025-288P",
        "meta_epoch": "2025-12-18T22:00:00.999936",
        "meta_mean_motion": 15.85234183,
        "meta_eccentricity": 0.00017972,
        "meta_inclination": 43.0013,
        "meta_ra_of_asc_node": 129.3093,
        "meta_arg_of_pericenter": 276.3935,
        "meta_mean_anomaly": 56.6811,
        "meta_ephemeris_type": 0,
        "meta_classification_type": "U",
        "meta_norad_cat_id": 66972,
        "meta_element_set_no": 999,
        "meta_rev_at_epoch": 282,
        "meta_bstar": -0.0062875689,
        "meta_mean_motion_dot": -0.01353155,
        "meta_mean_motion_ddot": 0,
        "tle_line1": "1 66972U 25288P   25352.91667824 -.01353155  00000+0 -62876-2 0  9990",
        "tle_line2": "2 66972  43.0013 129.3093 0001797 276.3935  56.6811 15.85234183  2828"
      },
      "geometry": {
        "type": "Point",
        "coordinates": [
          89.61489194525278,
          -29.502709221267807
        ]
      }
    },
    {
      "type": "Feature",
      "properties": {
        "norad_id": 66973,
        "name": "STARLINK-35778",
        "group": "last-30-days",
        "lat": -28.18204693651632,
        "lon": 91.8996696453315,
        "alt_km": 320.34198077840574,
        "timestamp": "2025-12-19T06:59:42.652662+00:00",
        "meta_object_name": "STARLINK-35778",
        "meta_object_id": "2025-288Q",
        "meta_epoch": "2025-12-18T22:00:00.999936",
        "meta_mean_motion": 15.85233077,
        "meta_eccentricity": 0.00017415,
        "meta_inclination": 43.0015,
        "meta_ra_of_asc_node": 129.3033,
        "meta_arg_of_pericenter": 279.0112,
        "meta_mean_anomaly": 56.4742,
        "meta_ephemeris_type": 0,
        "meta_classification_type": "U",
        "meta_norad_cat_id": 66973,
        "meta_element_set_no": 999,
        "meta_rev_at_epoch": 282,
        "meta_bstar": -0.0063217771,
        "meta_mean_motion_dot": -0.0135948,
        "meta_mean_motion_ddot": 0,
        "tle_line1": "1 66973U 25288Q   25352.91667824 -.01359480  00000+0 -63218-2 0  9999",
        "tle_line2": "2 66973  43.0015 129.3033 0001741 279.0112  56.4742 15.85233077  2823"
      },
      "geometry": {
        "type": "Point",
        "coordinates": [
          91.8996696453315,
          -28.18204693651632
        ]
      }
    },
    {
      "type": "Feature",
      "properties": {
        "norad_id": 66974,
        "name": "STARLINK-35780",
        "group": "last-30-days",
        "lat": -26.866121581043558,
        "lon": 94.06048382865593,
        "alt_km": 320.21620734744647,
        "timestamp": "2025-12-19T06:59:42.652672+00:00",
        "meta_object_name": "STARLINK-35780",
        "meta_object_id": "2025-288R",
        "meta_epoch": "2025-12-18T22:00:00.999936",
        "meta_mean_motion": 15.8523356,
        "meta_eccentricity": 0.00018516,
        "meta_inclination": 43.0015,
        "meta_ra_of_asc_node": 129.2976,
        "meta_arg_of_pericenter": 280.1919,
        "meta_mean_anomaly": 57.6263,
        "meta_ephemeris_type": 0,
        "meta_classification_type": "U",
        "meta_norad_cat_id": 66974,
        "meta_element_set_no": 999,
        "meta_rev_at_epoch": 282,
        "meta_bstar": -0.0063508571,
        "meta_mean_motion_dot": -0.01365052,
        "meta_mean_motion_ddot": 0,
        "tle_line1": "1 66974U 25288R   25352.91667824 -.01365052  00000+0 -63509-2 0  9995",
        "tle_line2": "2 66974  43.0015 129.2976 0001851 280.1919  57.6263 15.85233560  2827"
      },
      "geometry": {
        "type": "Point",
        "coordinates": [
          94.06048382865593,
          -26.866121581043558
        ]
      }
    },
    {
      "type": "Feature",
      "properties": {
        "norad_id": 66975,
        "name": "STARLINK-35777",
        "group": "last-30-days",
        "lat": -24.12264830940831,
        "lon": 98.2587239776965,
        "alt_km": 320.1745700176025,
        "timestamp": "2025-12-19T06:59:42.652684+00:00",
        "meta_object_name": "STARLINK-35777",
        "meta_object_id": "2025-288S",
        "meta_epoch": "2025-12-18T22:00:00.999936",
        "meta_mean_motion": 15.85235429,
        "meta_eccentricity": 0.00017742,
        "meta_inclination": 43.0017,
        "meta_ra_of_asc_node": 129.2854,
        "meta_arg_of_pericenter": 278.63,
        "meta_mean_anomaly": 63.882,
        "meta_ephemeris_type": 0,
        "meta_classification_type": "U",
        "meta_norad_cat_id": 66975,
        "meta_element_set_no": 999,
        "meta_rev_at_epoch": 282,
        "meta_bstar": -0.0064078088,
        "meta_mean_motion_dot": -0.01375774,
        "meta_mean_motion_ddot": 0,
        "tle_line1": "1 66975U 25288S   25352.91667824 -.01375774  00000+0 -64078-2 0  9990",
        "tle_line2": "2 66975  43.0017 129.2854 0001774 278.6300  63.8820 15.85235429  2829"
      },
      "geometry": {
        "type": "Point",
        "coordinates": [
          98.2587239776965,
          -24.12264830940831
        ]
      }
    }
  ]
}